{"type": "FeatureCollection", "features": [ {"type": "Feature", "properties": {"norad_id": 31342, "name": "FENGYUN 1C DEB", "group": "fengyun-1c-debris", "lat": 55.83410870643635, "lon": -70.7485299264134, "alt_km": 840.1050697923974, "timestamp": "2025-12-12T09:49:09.013765+00:00", "meta": {"OBJECT_NAME": "FENGYUN 1C DEB", "OBJECT_ID": "1999-025BQW", "EPOCH": "2025-12-12T02:51:51.280128", "MEAN_MOTION": 14.36767896, "ECCENTRICITY": 0.0111456, "INCLINATION": 98.9351, "RA_OF_ASC_NODE": 302.3535, "ARG_OF_PERICENTER": 221.1783, "MEAN_ANOMALY": 138.0954, "EPHEMERIS_TYPE": 0, "CLASSIFICATION_TYPE": "U", "NORAD_CAT_ID": 31342, "ELEMENT_SET_NO": 999, "REV_AT_EPOCH": 97882, "BSTAR": 0.00020821, "MEAN_MOTION_DOT": 6.09e-06, "MEAN_MOTION_DDOT": 0}, "tle": {"line1": "1 31342U 99025BQW 25346.11934352  .00000609  00000+0  20821-3 0  9996", "line2": "2 31342  98.9351 302.3535 0111456 221.1783 138.0954 14.36767896978824"}}, "geometry": {"type": "Point", "coordinates": [-70.7485299264134, 55.83410870643635]}}, {"type": "Feature", "properties": {"norad_id": 31346, "name": "FENGYUN 1C DEB", "group": "fengyun-1c-debris", "lat": 28.681260521759636, "lon": 138.21983855387938, "alt_km": 585.1918426795673, "timestamp": "2025-12-12T09:49:09.013776+00:00", "meta": {"OBJECT_NAME": "FENGYUN 1C DEB", "OBJECT_ID": "1999-025BRA", "EPOCH": "2025-12-11T20:26:38.419584", "MEAN_MOTION": 15.10865018, "ECCENTRICITY": 0.0111021, "INCLINATION": 98.866, "RA_OF_ASC_NODE": 312.676, "ARG_OF_PERICENTER": 18.5, "MEAN_ANOMALY": 342.0213, "EPHEMERIS_TYPE": 0, "CLASSIFICATION_TYPE": "U", "NORAD_CAT_ID": 31346, "ELEMENT_SET_NO": 999, "REV_AT_EPOCH": 99482, "BSTAR": 0.0016526, "MEAN_MOTION_DOT": 0.0003191, "MEAN_MOTION_DDOT": 0}, "tle": {"line1": "1 31346U 99025BRA 25345.85183356  .00031910  00000+0  16526-2 0  9995", "line2": "2 31346  98.8660 312.6760 0111021  18.5000 342.0213 15.10865018994823"}}, "geometry": {"type": "Point", "coordinates": [138.21983855387938, 28.681260521759636]}}, {"type": "Feature", "properties": {"norad_id": 31348, "name": "FENGYUN 1C DEB", "group": "fengyun-1c-debris", "lat": -78.31093487443539, "lon": 66.44310655646596, "alt_km": 809.7130551810515, "timestamp": "2025-12-12T09:49:09.013786+00:00", "meta": {"OBJECT_NAME": "FENGYUN 1C DEB", "OBJECT_ID": "1999-025BRC", "EPOCH": "2025-12-08T08:10:46.398720", "MEAN_MOTION": 14.33993846, "ECCENTRICITY": 0.00352025, "INCLINATION": 99.1191, "RA_OF_ASC_NODE": 293.0834, "ARG_OF_PERICENTER": 78.0004, "MEAN_ANOMALY": 74.0816, "EPHEMERIS_TYPE": 0, "CLASSIFICATION_TYPE": "U", "NORAD_CAT_ID": 31348, "ELEMENT_SET_NO": 999, "REV_AT_EPOCH": 96186, "BSTAR": 0.0019749425, "MEAN_MOTION_DOT": 5.507e-05, "MEAN_MOTION_DDOT": 0}, "tle": {"line1": "1 31348U 99025BRC 25342.34081480  .00005507  00000+0  19749-2 0  9996", "line2": "2 31348  99.1191 293.0834 0035202  78.0004  74.0816 14.33993846961867"}}, "geometry": {"type": "Point", "coordinates": [66.44310655646596, -78.31093487443539]}}, {"type": "Feature", "properties": {"norad_id": 31350, "name": "FENGYUN 1C DEB", "group": "fengyun-1c-debris", "lat": 15.712657158036462, "lon": -19.043418896141496, "alt_km": 738.3694448917913, "timestamp": "2025-12-12T09:49:09.013797+00:00", "meta": {"OBJECT_NAME": "FENGYUN 1C DEB", "OBJECT_ID": "1999-025BRE", "EPOCH": "2025-12-08T18:02:03.920064", "MEAN_MOTION": 14.34830277, "ECCENTRICITY": 0.00667483, "INCLINATION": 98.9604, "RA_OF_ASC_NODE": 154.6193, "ARG_OF_PERICENTER": 136.9079, "MEAN_ANOMALY": 223.7357, "EPHEMERIS_TYPE": 0, "CLASSIFICATION_TYPE": "U", "NORAD_CAT_ID": 31350, "ELEMENT_SET_NO": 999, "REV_AT_EPOCH": 70196, "BSTAR": 0.0010632143, "MEAN_MOTION_DOT": 3.049e-05, "MEAN_MOTION_DDOT": 0}, "tle": {"line1": "1 31350U 99025BRE 25342.75143426  .00003049  00000+0  10632-2 0  9994", "line2": "2 31350  98.9604 154.6193 0066748 136.9079 223.7357 14.34830277701966"}}, "geometry": {"type": "Point", "coordinates": [-19.043418896141496, 15.712657158036462]}}, {"type": "Feature", "properties": {"norad_id": 31351, "name": "FENGYUN 1C DEB", "group": "fengyun-1c-debris", "lat": 63.16296570734048, "lon": -44.6206395393906, "alt_km": 797.2847490475606, "timestamp": "2025-12-12T09:49:09.013807+00:00", "meta": {"OBJECT_NAME": "FENGYUN 1C DEB", "OBJECT_ID": "1999-025BRF", "EPOCH": "2025-12-05T22:12:04.612896", "MEAN_MOTION": 14.06922487, "ECCENTRICITY": 0.00937925, "INCLINATION": 98.7943, "RA_OF_ASC_NODE": 326.89, "ARG_OF_PERICENTER": 70.3082, "MEAN_ANOMALY": 290.8177, "EPHEMERIS_TYPE": 0, "CLASSIFICATION_TYPE": "U", "NORAD_CAT_ID": 31351, "ELEMENT_SET_NO": 999, "REV_AT_EPOCH": 61279, "BSTAR": 0.00046990462, "MEAN_MOTION_DOT": 7.73e-06, "MEAN_MOTION_DDOT": 0}, "tle": {"line1": "1 31351U 99025BRF 25339.92505339  .00000773  00000+0  46990-3 0  9993", "line2": "2 31351  98.7943 326.8900 0093792  70.3082 290.8177 14.06922487612795"}}, "geometry": {"type": "Point", "coordinates": [-44.6206395393906, 63.16296570734048]}}, {"type": "Feature", "properties": {"norad_id": 31353, "name": "FENGYUN 1C DEB", "group": "fengyun-1c-debris", "lat": -68.79895327582521, "lon": 67.57310556081127, "alt_km": 963.7884737813565, "timestamp": "2025-12-12T09:49:09.013818+00:00", "meta": {"OBJECT_NAME": "FENGYUN 1C DEB", "OBJECT_ID": "1999-025BRH", "EPOCH": "2025-12-08T13:58:15.944736", "MEAN_MOTION": 14.29829751, "ECCENTRICITY": 0.0229354, "INCLINATION": 98.9912, "RA_OF_ASC_NODE": 267.7094, "ARG_OF_PERICENTER": 79.5278, "MEAN_ANOMALY": 283.1658, "EPHEMERIS_TYPE": 0, "CLASSIFICATION_TYPE": "U", "NORAD_CAT_ID": 31353, "ELEMENT_SET_NO": 999, "REV_AT_EPOCH": 96525, "BSTAR": 0.00080756, "MEAN_MOTION_DOT": 2.712e-05, "MEAN_MOTION_DDOT": 0}, "tle": {"line1": "1 31353U 99025BRH 25342.58212899  .00002712  00000+0  80756-3 0  9990", "line2": "2 31353  98.9912 267.7094 0229354  79.5278 283.1658 14.29829751965251"}}, "geometry": {"type": "Point", "coordinates": [67.57310556081127, -68.79895327582521]}}, {"type": "Feature", "properties": {"norad_id": 31357, "name": "FENGYUN 1C DEB", "group": "fengyun-1c-debris", "lat": 2.855614298912022, "lon": -162.14511121602803, "alt_km": 848.627038017853, "timestamp": "2025-12-12T09:49:09.013828+00:00", "meta": {"OBJECT_NAME": "FENGYUN 1C DEB", "OBJECT_ID": "1999-025BRM", "EPOCH": "2025-12-11T00:57:32.630400", "MEAN_MOTION": 14.18526149, "ECCENTRICITY": 0.00489613, "INCLINATION": 98.6116, "RA_OF_ASC_NODE": 16.0927, "ARG_OF_PERICENTER": 297.6901, "MEAN_ANOMALY": 91.8137, "EPHEMERIS_TYPE": 0, "CLASSIFICATION_TYPE": "U", "NORAD_CAT_ID": 31357, "ELEMENT_SET_NO": 999, "REV_AT_EPOCH": 96680, "BSTAR": 5.636953e-05, "MEAN_MOTION_DOT": 7.5e-07, "MEAN_MOTION_DDOT": 0}, "tle": {"line1": "1 31357U 99025BRM 25345.03996100  .00000075  00000+0  56370-4 0  9997", "line2": "2 31357  98.6116  16.0927 0048961 297.6901  91.8137 14.18526149966808"}}, "geometry": {"type": "Point", "coordinates": [-162.14511121602803, 2.855614298912022]}}, {"type": "Feature", "properties": {"norad_id": 31358, "name": "FENGYUN 1C DEB", "group": "fengyun-1c-debris", "lat": -40.90093089458422, "lon": -72.7574104677866, "alt_km": 544.1897924354762, "timestamp": "2025-12-12T09:49:09.013839+00:00", "meta": {"OBJECT_NAME": "FENGYUN 1C DEB", "OBJECT_ID": "1999-025BRN", "EPOCH": "2025-12-11T18:11:10.565088", "MEAN_MOTION": 15.18191197, "ECCENTRICITY": 0.0043493, "INCLINATION": 98.907, "RA_OF_ASC_NODE": 278.6684, "ARG_OF_PERICENTER": 116.4243, "MEAN_ANOMALY": 244.1459, "EPHEMERIS_TYPE": 0, "CLASSIFICATION_TYPE": "U", "NORAD_CAT_ID": 31358, "ELEMENT_SET_NO": 999, "REV_AT_EPOCH": 97555, "BSTAR": 0.010693, "MEAN_MOTION_DOT": 0.00230632, "MEAN_MOTION_DDOT": 0}, "tle": {"line1": "1 31358U 99025BRN 25345.75776117  .00230632  00000+0  10693-1 0  9990", "line2": "2 31358  98.9070 278.6684 0043493 116.4243 244.1459 15.18191197975553"}}, "geometry": {"type": "Point", "coordinates": [-72.7574104677866, -40.90093089458422]}}, {"type": "Feature", "properties": {"norad_id": 31361, "name": "FENGYUN 1C DEB", "group": "fengyun-1c-debris", "lat": -37.869582290778105, "lon": -31.550188191297117, "alt_km": 850.4599923830783, "timestamp": "2025-12-12T09:49:09.013849+00:00", "meta": {"OBJECT_NAME": "FENGYUN 1C DEB", "OBJECT_ID": "1999-025BRR", "EPOCH": "2025-12-10T03:47:55.285728", "MEAN_MOTION": 14.17742789, "ECCENTRICITY": 0.00461797, "INCLINATION": 98.5505, "RA_OF_ASC_NODE": 319.5645, "ARG_OF_PERICENTER": 77.942, "MEAN_ANOMALY": 282.6925, "EPHEMERIS_TYPE": 0, "CLASSIFICATION_TYPE": "U", "NORAD_CAT_ID": 31361, "ELEMENT_SET_NO": 999, "REV_AT_EPOCH": 96527, "BSTAR": 0.00019181193, "MEAN_MOTION_DOT": 3.53e-06, "MEAN_MOTION_DDOT": 0}, "tle": {"line1": "1 31361U 99025BRR 25344.15827877  .00000353  00000+0  19181-3 0  9995", "line2": "2 31361  98.5505 319.5645 0046179  77.9420 282.6925 14.17742789965270"}}, "geometry": {"type": "Point", "coordinates": [-31.550188191297117, -37.869582290778105]}}, {"type": "Feature", "properties": {"norad_id": 31362, "name": "FENGYUN 1C DEB", "group": "fengyun-1c-debris", "lat": -58.883421556989646, "lon": -4.620713406459936, "alt_km": 854.0250414211068, "timestamp": "2025-12-12T09:49:09.013860+00:00", "meta": {"OBJECT_NAME": "FENGYUN 1C DEB", "OBJECT_ID": "1999-025BRS", "EPOCH": "2025-12-11T18:51:15.804576", "MEAN_MOTION": 14.17377597, "ECCENTRICITY": 0.00192265, "INCLINATION": 98.6525, "RA_OF_ASC_NODE": 340.1613, "ARG_OF_PERICENTER": 98.269, "MEAN_ANOMALY": 262.0667, "EPHEMERIS_TYPE": 0, "CLASSIFICATION_TYPE": "U", "NORAD_CAT_ID": 31362, "ELEMENT_SET_NO": 999, "REV_AT_EPOCH": 96562, "BSTAR": 0.00024602614, "MEAN_MOTION_DOT": 4.56e-06, "MEAN_MOTION_DDOT": 0}, "tle": {"line1": "1 31362U 99025BRS 25345.78559959  .00000456  00000+0  24603-3 0  9998", "line2": "2 31362  98.6525 340.1613 0019226  98.2690 262.0667 14.17377597965622"}}, "geometry": {"type": "Point", "coordinates": [-4.620713406459936, -58.883421556989646]}}]}